ONEWEB-0685             
1 54679U 22166AP  25157.71406393  .00000128  00000+0  27847-3 0  9992
2 54679  87.9252 318.8745 0001566  93.6527 266.4786 13.21825512121814
ONEWEB-0712             
1 54680U 22166AQ  25157.63502424  .00000152  00000+0  36508-3 0  9998
2 54680  87.9031 303.6168 0001468 115.2298 244.8985 13.16596223123102
ONEWEB-0714             
1 54681U 22166AR  25157.72036468  .00000035  00000+0  52434-4 0  9996
2 54681  87.9253 318.8650 0001575  93.0319 267.0995 13.21827171121931
ONEWEB-0532             
1 55140U 23004A   25157.75679993 -.00000037  00000+0 -12956-3 0  9996
2 55140  87.9068  80.6062 0002259  68.3310 291.8062 13.17648898118144
ONEWEB-0533             
1 55141U 23004B   25158.21811072 -.00000194  00000+0 -57415-3 0  9998
2 55141  87.8896  65.2412 0001704  75.1572 284.9745 13.12442541118874
ONEWEB-0541             
1 55142U 23004C   25158.10738771  .00000019  00000+0  18004-4 0  9997
2 55142  87.8839  95.8104 0002029  78.6481 281.4875 13.11421614116799
ONEWEB-0543             
1 55143U 23004D   25157.72732714  .00000043  00000+0  75399-4 0  9993
2 55143  87.9141  50.1406 0001630  86.2192 273.9126 13.18686936120211
ONEWEB-0544             
1 55144U 23004E   25157.94864075 -.00000311  00000+0 -82199-3 0  9999
2 55144  87.9144  50.0861 0001947  87.0115 273.1240 13.18687151120246
